[{"OBJECT_NAME":"KAZEOSAT 1","OBJECT_ID":"2014-024A","EPOCH":"2026-03-09T22:32:10.650624","MEAN_MOTION":14.4203561,"ECCENTRICITY":0.0001038,"INCLINATION":98.3278,"RA_OF_ASC_NODE":143.8269,"ARG_OF_PERICENTER":83.2576,"MEAN_ANOMALY":276.8732,"EPHEMERIS_TYPE":0,"CLASSIFICATION_TYPE":"U","NORAD_CAT_ID":39731,"ELEMENT_SET_NO":999,"REV_AT_EPOCH":62425,"BSTAR":8.1032563e-5,"MEAN_MOTION_DOT":2.23e-6,"MEAN_MOTION_DDOT":0},{"OBJECT_NAME":"SL-8 R\/B","OBJECT_ID":"1983-103B","EPOCH":"2026-03-09T17:19:25.319712","MEAN_MOTION":14.37362004,"ECCENTRICITY":0.00275661,"INCLINATION":74.0461,"RA_OF_ASC_NODE":162.5618,"ARG_OF_PERICENTER":297.7676,"MEAN_ANOMALY":62.0683,"EPHEMERIS_TYPE":0,"CLASSIFICATION_TYPE":"U","NORAD_CAT_ID":14402,"ELEMENT_SET_NO":999,"REV_AT_EPOCH":21964,"BSTAR":0.00011047384,"MEAN_MOTION_DOT":3.05e-6,"MEAN_MOTION_DDOT":0}]
